[{"OBJECT_NAME":"NUSAT-44 (MARIA MITCHELL)","OBJECT_ID":"2024-043AA","EPOCH":"2026-03-09T22:12:18.524160","MEAN_MOTION":15.29764305,"ECCENTRICITY":0.0007331,"INCLINATION":97.5299,"RA_OF_ASC_NODE":207.7691,"ARG_OF_PERICENTER":214.9017,"MEAN_ANOMALY":145.1743,"EPHEMERIS_TYPE":0,"CLASSIFICATION_TYPE":"U","NORAD_CAT_ID":59122,"ELEMENT_SET_NO":999,"REV_AT_EPOCH":11209,"BSTAR":0.00061063193,"MEAN_MOTION_DOT":0.00017562,"MEAN_MOTION_DDOT":0},{"OBJECT_NAME":"STARLINK-32156","OBJECT_ID":"2024-132A","EPOCH":"2026-03-09T23:08:15.189216","MEAN_MOTION":15.30185403,"ECCENTRICITY":0.00016075,"INCLINATION":53.1617,"RA_OF_ASC_NODE":51.0684,"ARG_OF_PERICENTER":84.3488,"MEAN_ANOMALY":275.7696,"EPHEMERIS_TYPE":0,"CLASSIFICATION_TYPE":"U","NORAD_CAT_ID":60278,"ELEMENT_SET_NO":999,"REV_AT_EPOCH":9282,"BSTAR":1.2145713e-5,"MEAN_MOTION_DOT":0,"MEAN_MOTION_DDOT":0}]
